CCSDS_OEM_VERS = 1.0
CREATION_DATE  = 2017-05-11T11:54:57
ORIGINATOR     = GMAT USER

META_START
OBJECT_NAME          = MOPSSat_alt_35785_km_RAAN_270_055
OBJECT_ID            = SatId
CENTER_NAME          = Earth
REF_FRAME            = EME2000
TIME_SYSTEM          = UTC
START_TIME           = 2017-01-01T00:00:00.000
USEABLE_START_TIME   = 2017-01-01T00:00:00.000
USEABLE_STOP_TIME    = 2017-01-02T00:00:00.000
STOP_TIME            = 2017-01-02T00:00:00.000
INTERPOLATION        = Lagrange
INTERPOLATION_DEGREE = 7 
META_STOP


                                                                                   

2017-01-01T17:43:20.000  -4.208550925563478e+04   2.519806878505615e+03   1.747350642193812e+00  -1.836969213094408e-01  -3.069387747897149e+00   1.051523442934171e-04
2017-01-01T17:43:30.000  -4.208733503226271e+04   2.489112333586325e+03   1.748401815146919e+00  -1.814583844512582e-01  -3.069520905242206e+00   1.050822317251914e-04
2017-01-01T17:43:40.000  -4.208913842300327e+04   2.458416465843000e+03   1.749452286576598e+00  -1.792197509650856e-01  -3.069652429946511e+00   1.050120436265884e-04
2017-01-01T17:43:50.000  -4.209091942691430e+04   2.427719291291175e+03   1.750502055738328e+00  -1.769810220190520e-01  -3.069782321941289e+00   1.049417800242309e-04
2017-01-01T17:44:00.000  -4.209267804306124e+04   2.397020826017357e+03   1.751551121885454e+00  -1.747421987864625e-01  -3.069910581158330e+00   1.048714409449495e-04
2017-01-01T17:44:10.000  -4.209441427052694e+04   2.366321086022419e+03   1.752599484274559e+00  -1.725032824343769e-01  -3.070037207530680e+00   1.048010264154253e-04
2017-01-01T17:44:20.000  -4.209612810838597e+04   2.335620087619023e+03   1.753647142151792e+00  -1.702642741525938e-01  -3.070162200990794e+00   1.047305364630932e-04
2017-01-01T17:44:30.000  -4.209781955572453e+04   2.304917847136599e+03   1.754694094763048e+00  -1.680251751321344e-01  -3.070285561471970e+00   1.046599711154741e-04
2017-01-01T17:44:40.000  -4.209948861163924e+04   2.274214380921273e+03   1.755740341353931e+00  -1.657859865652378e-01  -3.070407288908265e+00   1.045893304001711e-04
2017-01-01T17:44:50.000  -4.210113527522399e+04   2.243509705631238e+03   1.756785881159785e+00  -1.635467096669017e-01  -3.070527383233543e+00   1.045186143455564e-04
2017-01-01T17:45:00.000  -4.210275954558884e+04   2.212803837838947e+03   1.757830713419158e+00  -1.613073456458714e-01  -3.070645844382838e+00   1.044478229798495e-04
2017-01-01T17:45:10.000  -4.210436142185212e+04   2.182096794187798e+03   1.758874837368489e+00  -1.590678957160654e-01  -3.070762672291794e+00   1.043769563314788e-04
2017-01-01T17:45:20.000  -4.210594090317682e+04   2.151388590699171e+03   1.759918252265672e+00  -1.568283610460395e-01  -3.070877866899314e+00   1.043060144274853e-04
2017-01-01T17:45:30.000  -4.210749798873405e+04   2.120679243465364e+03   1.760960957366482e+00  -1.545887428095209e-01  -3.070991428144885e+00   1.042349972951187e-04
2017-01-01T17:45:40.000  -4.210903267771166e+04   2.089968768492932e+03   1.762002951929924e+00  -1.523490421739840e-01  -3.071103355969223e+00   1.041639049614775e-04
2017-01-01T17:45:50.000  -4.211054496929135e+04   2.059257182100263e+03   1.763044235204636e+00  -1.501092603296450e-01  -3.071213650312594e+00   1.040927374544179e-04
2017-01-01T17:46:00.000  -4.211203486266651e+04   2.028544500622440e+03   1.764084806439008e+00  -1.478693984679376e-01  -3.071322311116113e+00   1.040214948018824e-04
2017-01-01T17:46:10.000  -4.211350235704108e+04   1.997830740411170e+03   1.765124664881147e+00  -1.456294577815079e-01  -3.071429338321670e+00   1.039501770318956e-04
2017-01-01T17:46:20.000  -4.211494745161834e+04   1.967115918130242e+03   1.766163809768971e+00  -1.433894394857617e-01  -3.071534731871103e+00   1.038787841732612e-04
2017-01-01T17:46:30.000  -4.211637014561715e+04   1.936400050357598e+03   1.767202240343586e+00  -1.411493447898446e-01  -3.071638491707387e+00   1.038073162546274e-04
2017-01-01T17:46:40.000  -4.211777043826499e+04   1.905683153745044e+03   1.768239955843910e+00  -1.389091749082887e-01  -3.071740617774130e+00   1.037357733048605e-04
2017-01-01T17:46:50.000  -4.211914832883026e+04   1.874965244313458e+03   1.769276955530478e+00  -1.366689310096131e-01  -3.071841110017917e+00   1.036641553514025e-04
2017-01-01T17:47:00.000  -4.212050381658973e+04   1.844246338159344e+03   1.770313238661567e+00  -1.344286142678518e-01  -3.071939968385951e+00   1.035924624219168e-04
2017-01-01T17:47:10.000  -4.212183690083719e+04   1.813526451272436e+03   1.771348804499369e+00  -1.321882258492525e-01  -3.072037192826671e+00   1.035206945438642e-04
2017-01-01T17:47:20.000  -4.212314758085957e+04   1.782805600026097e+03   1.772383652293376e+00  -1.299477669480407e-01  -3.072132783288017e+00   1.034488517456412e-04
2017-01-01T17:47:30.000  -4.212443585595709e+04   1.752083800772641e+03   1.773417781294100e+00  -1.277072387569067e-01  -3.072226739718906e+00   1.033769340556419e-04
2017-01-01T17:47:40.000  -4.212570172543862e+04   1.721361069933637e+03   1.774451190750011e+00  -1.254666424735917e-01  -3.072319062068872e+00   1.033049415024669e-04
2017-01-01T17:47:50.000  -4.212694518862433e+04   1.690637423975420e+03   1.775483879908418e+00  -1.232259792991016e-01  -3.072409750288290e+00   1.032328741148713e-04
2017-01-01T17:48:00.000  -4.212816624484579e+04   1.659912879378428e+03   1.776515848016453e+00  -1.209852504354709e-01  -3.072498804328346e+00   1.031607319216884e-04
2017-01-01T17:48:10.000  -4.212936489344632e+04   1.629187452626116e+03   1.777547094321449e+00  -1.187444570849539e-01  -3.072586224141105e+00   1.030885149518046e-04
2017-01-01T17:48:20.000  -4.213054113378622e+04   1.598461160095097e+03   1.778577618074657e+00  -1.165036004420133e-01  -3.072672009679854e+00   1.030162232339029e-04
2017-01-01T17:48:30.000  -4.213169496523889e+04   1.567734018128356e+03   1.779607418528748e+00  -1.142626816986591e-01  -3.072756160898843e+00   1.029438567966329e-04
2017-01-01T17:48:40.000  -4.213282638719103e+04   1.537006043035244e+03   1.780636494937833e+00  -1.120217020444484e-01  -3.072838677753293e+00   1.028714156686108e-04
2017-01-01T17:48:50.000  -4.213393539904455e+04   1.506277251018179e+03   1.781664846559880e+00  -1.097806626611399e-01  -3.072919560199531e+00   1.027988998782451e-04
2017-01-01T17:49:00.000  -4.213502200021306e+04   1.475547658282550e+03   1.782692472653055e+00  -1.075395647307086e-01  -3.072998808194742e+00   1.027263094539968e-04
2017-01-01T17:49:10.000  -4.213608619012176e+04   1.444817281047794e+03   1.783719372475361e+00  -1.052984094361544e-01  -3.073076421696950e+00   1.026536444244063e-04
2017-01-01T17:49:20.000  -4.213712796820494e+04   1.414086135577951e+03   1.784745545283572e+00  -1.030571979637299e-01  -3.073152400664844e+00   1.025809048181588e-04
2017-01-01T17:49:30.000  -4.213814733390675e+04   1.383354238206267e+03   1.785770990332461e+00  -1.008159315047349e-01  -3.073226745057837e+00   1.025080906641506e-04
2017-01-01T17:49:40.000  -4.213914428668360e+04   1.352621605244792e+03   1.786795706877802e+00  -9.857461124892337e-02  -3.073299454836235e+00   1.024352019912717e-04
2017-01-01T17:49:50.000  -4.214011882599329e+04   1.321888253389379e+03   1.787819694162932e+00  -9.633323841403985e-02  -3.073370529960439e+00   1.023622388293761e-04
2017-01-01T17:50:00.000  -4.214107095130859e+04   1.291154199228895e+03   1.788842951435050e+00  -9.409181421002656e-02  -3.073439970391951e+00   1.022892012081084e-04
2017-01-01T17:50:10.000  -4.214200066211200e+04   1.260419459427713e+03   1.789865477939147e+00  -9.185033985233219e-02  -3.073507776092976e+00   1.022160891573388e-04
2017-01-01T17:50:20.000  -4.214290795791736e+04   1.229684050018730e+03   1.790887272941536e+00  -8.960881651035237e-02  -3.073573947028007e+00   1.021429027054801e-04
2017-01-01T17:50:30.000  -4.214379283824805e+04   1.198947987108543e+03   1.791908335706377e+00  -8.736724535885720e-02  -3.073638483162235e+00   1.020696418811660e-04
2017-01-01T17:50:40.000  -4.214465530264234e+04   1.168211286717658e+03   1.792928665501010e+00  -8.512562756633860e-02  -3.073701384461935e+00   1.019963067128716e-04
2017-01-01T17:50:50.000  -4.214549535063915e+04   1.137473965178476e+03   1.793948261582640e+00  -8.288396432403472e-02  -3.073762650893428e+00   1.019228972298561e-04
2017-01-01T17:51:00.000  -4.214631298178949e+04   1.106736038839834e+03   1.794967123208251e+00  -8.064225682438227e-02  -3.073822282423923e+00   1.018494134614653e-04
2017-01-01T17:51:10.000  -4.214710819565525e+04   1.075997524066953e+03   1.795985249634568e+00  -7.840050626101316e-02  -3.073880279021416e+00   1.017758554371280e-04
2017-01-01T17:51:20.000  -4.214788099180447e+04   1.045258437537081e+03   1.797002640108364e+00  -7.615871385031486e-02  -3.073936640654355e+00   1.017022231870710e-04
2017-01-01T17:51:30.000  -4.214863136981895e+04   1.014518795841297e+03   1.798019293879554e+00  -7.391688080239099e-02  -3.073991367292188e+00   1.016285167413594e-04
2017-01-01T17:51:40.000  -4.214935932929070e+04   9.837786156413583e+02   1.799035210196025e+00  -7.167500833249948e-02  -3.074044458905115e+00   1.015547361302737e-04
2017-01-01T17:51:50.000  -4.215006486983874e+04   9.530379129759912e+02   1.800050388326567e+00  -6.943309761046092e-02  -3.074095915465303e+00   1.014808813826475e-04
2017-01-01T17:52:00.000  -4.215074799109220e+04   9.222967039545762e+02   1.801064827537934e+00  -6.719114981124859e-02  -3.074145736945651e+00   1.014069525275292e-04
2017-01-01T17:52:10.000  -4.215140869269453e+04   8.915550046003106e+02   1.802078527100049e+00  -6.494916610355046e-02  -3.074193923320109e+00   1.013329495938074e-04
2017-01-01T17:52:20.000  -4.215204697429184e+04   8.608128312482751e+02   1.803091486272768e+00  -6.270714767880008e-02  -3.074240474562819e+00   1.012588726111570e-04
